[{"OBJECT_NAME":"TECHDEMOSAT-1 (TDS-1)","OBJECT_ID":"2014-037H","EPOCH":"2026-03-09T22:08:12.399936","MEAN_MOTION":15.11581991,"ECCENTRICITY":0.0004745,"INCLINATION":98.3776,"RA_OF_ASC_NODE":51.4583,"ARG_OF_PERICENTER":234.81,"MEAN_ANOMALY":125.2683,"EPHEMERIS_TYPE":0,"CLASSIFICATION_TYPE":"U","NORAD_CAT_ID":40076,"ELEMENT_SET_NO":999,"REV_AT_EPOCH":63322,"BSTAR":0.00065800271,"MEAN_MOTION_DOT":0.00011104,"MEAN_MOTION_DDOT":0},{"OBJECT_NAME":"STARLINK-2081","OBJECT_ID":"2021-005T","EPOCH":"2026-03-10T00:00:02.999808","MEAN_MOTION":15.11382096,"ECCENTRICITY":0.00011542,"INCLINATION":53.0731,"RA_OF_ASC_NODE":60.1713,"ARG_OF_PERICENTER":72.8925,"MEAN_ANOMALY":345.3499,"EPHEMERIS_TYPE":0,"CLASSIFICATION_TYPE":"U","NORAD_CAT_ID":47366,"ELEMENT_SET_NO":999,"REV_AT_EPOCH":574,"BSTAR":0.0047781147,"MEAN_MOTION_DOT":0.0008222,"MEAN_MOTION_DDOT":0}]
